{"type":"FeatureCollection","features":[
    {"type":"Feature","geometry":{"type":"Polygon","coordinates":[[[12.3462215,51.3091164],[12.3539679,51.3197663],[12.3576173,51.3205957],[12.3639685,51.3122337],[12.3733506,51.3148687],[12.3786769,51.3147559],[12.383001,51.3110966],[12.3897036,51.3134361],[12.394841,51.312087],[12.3947333,51.3144517],[12.400218700000002,51.3142812],[12.4062932,51.3139425],[12.4037543,51.3128065],[12.407279600000003,51.3049752],[12.400110300000001,51.3020806],[12.3886244,51.303444],[12.3744999,51.2921264],[12.3717642,51.2936568],[12.3668332,51.286731700000004],[12.3551953,51.2963056],[12.3495042,51.2960106],[12.3397801,51.3016826],[12.3462215,51.3091164]]]},"properties":{"plz":"04277","note":"04277 Leipzig","qkm":8.229424,"einwohner":21732, "fill":"blue", "fill-opacity":0.5, "stroke-width":2}}

]}

